OBJECT_NAME,OBJECT_ID,EPOCH,MEAN_MOTION,ECCENTRICITY,INCLINATION,RA_OF_ASC_NODE,ARG_OF_PERICENTER,MEAN_ANOMALY,EPHEMERIS_TYPE,CLASSIFICATION_TYPE,NORAD_CAT_ID,ELEMENT_SET_NO,REV_AT_EPOCH,BSTAR,MEAN_MOTION_DOT,MEAN_MOTION_DDOT
GSAT0102 (PRN E12),2011-060B,2024-07-07T07:03:03.864672,1.70475453,.0002586,57.1305,0.9896,16.2207,160.3380,0,U,37847,999,7902,0,-.1E-5,0
COSMOS 2476 (744),2011-064A,2024-07-06T06:45:49.688640,2.13101700,.0022284,64.8931,96.9438,237.8689,305.2819,0,U,37867,999,9861,0,-.29E-6,0
COSMOS 2477 (745),2011-064B,2024-07-07T09:13:06.512160,2.13103233,.0019482,64.9008,96.9791,238.9899,247.9747,0,U,37868,999,9863,0,-.2E-6,0
COSMOS 2475 (743),2011-064C,2024-07-07T10:51:31.616064,2.13102068,.0024451,64.9076,96.9919,254.1921,243.5213,0,U,37869,999,9864,0,-.19E-6,0
BEIDOU-2 IGSO-5 (C10),2011-073A,2024-07-07T17:05:26.273760,1.00289492,.0101676,48.9723,280.2602,220.2518,136.6500,0,U,37948,999,4628,0,-.192E-5,0
LUCH 5A (SDCM/PRN 140),2011-074B,2024-07-07T11:38:42.900864,1.00274518,.0003858,6.9365,84.6576,26.9854,155.9302,0,U,37951,999,4593,0,-.56E-6,0
BEIDOU-2 G5 (C05),2012-008A,2024-07-07T13:28:41.966976,1.00277141,.000481,2.1247,71.0358,263.7983,212.1278,0,U,38091,999,4525,0,.51E-6,0
BEIDOU-2 M3 (C11),2012-018A,2024-07-07T20:58:36.617952,1.86231343,.0021524,56.3247,328.6544,261.0653,98.6816,0,U,38250,999,8308,0,-.104E-5,0
BEIDOU-2 M4 (C12),2012-018B,2024-07-06T17:31:32.699712,1.86232020,.0012352,56.2323,327.9624,261.5105,98.3370,0,U,38251,999,8271,0,-.107E-5,0
SES-5 (EGNOS/PRN 136),2012-036A,2024-07-07T20:05:29.199264,1.00272924,.0001946,0.0661,295.1321,165.9324,131.5538,0,U,38652,999,4395,0,.31E-6,0
BEIDOU-2 M6 (C14),2012-050B,2024-07-08T01:13:00.162048,1.86231252,.0013392,55.9283,86.4655,342.7551,17.2427,0,U,38775,999,8045,0,-.45E-6,0
GSAT-10 (GAGAN/PRN 128),2012-051B,2024-07-07T15:18:38.922336,1.00270283,.0000617,0.0169,286.7772,54.3471,257.6038,0,U,38779,999,4317,0,-.168E-5,0
GPS BIIF-3  (PRN 24),2012-053A,2024-07-07T08:13:01.140384,2.00559003,.0152757,53.5191,172.6457,56.0257,305.3892,0,U,38833,999,8520,0,.23E-6,0
GSAT0103 (PRN E19),2012-055A,2024-07-01T06:05:36.675744,1.70473498,.0004732,55.4124,121.2192,281.2563,78.6505,0,U,38857,999,7280,0,-.9E-7,0
BEIDOU-2 G6 (C02),2012-059A,2024-07-07T13:35:53.333664,1.00269131,.000883,2.6110,80.3764,319.1519,174.4392,0,U,38953,999,4279,0,-.18E-5,0
LUCH 5B (SDCM/PRN 125),2012-061A,2024-07-07T23:02:42.869760,1.00272603,.0004544,8.9331,56.5260,102.4927,96.7916,0,U,38977,999,4306,0,-.143E-5,0
COSMOS 2485 (747),2013-019A,2024-07-05T01:06:53.273952,2.13101906,.0022619,65.0501,97.5738,233.8791,125.9291,0,U,39155,999,8710,0,-.4E-6,0
GPS BIIF-4  (PRN 27),2013-023A,2024-07-07T04:55:30.946656,2.00562775,.0123798,55.0948,297.7759,45.0099,316.0097,0,U,39166,999,8164,0,-.63E-6,0
IRNSS-1A,2013-034A,2024-07-07T18:36:12.789792,1.00278630,.0017929,34.1221,74.1495,180.6145,5.5652,0,U,39199,999,4053,0,.55E-6,0
GPS BIIF-5  (PRN 30),2014-008A,2024-07-07T04:55:27.212448,2.00569684,.0073372,53.6017,178.2515,220.9974,138.4331,0,U,39533,999,7544,0,.28E-6,0
ASTRA 5B (EGNOS/PRN 123),2014-011B,2024-07-07T18:27:41.515200,1.00269951,.0001833,0.0694,308.6258,166.8876,111.1092,0,U,39617,999,3775,0,.134E-5,0
COSMOS 2492 (754),2014-012A,2024-07-05T22:34:02.000352,2.13103201,.0010886,65.6666,337.9989,325.4712,34.4474,0,U,39620,999,8008,0,-.86E-6,0
IRNSS-1B,2014-017A,2024-07-04T18:28:54.188832,1.00276548,.002286,28.9493,252.5284,187.0518,176.1040,0,U,39635,999,3765,0,.127E-5,0
LUCH 5V (SDCM/PRN 141),2014-023A,2024-07-08T03:23:18.913632,1.00269048,.000235,3.3483,75.9176,85.7171,270.4617,0,U,39727,999,55540,0,-.272E-5,0
GPS BIIF-6  (PRN 06),2014-026A,2024-07-06T23:37:14.398752,2.00567026,.0030889,56.7097,359.1006,316.3519,43.4109,0,U,39741,999,7429,0,-.105E-5,0
COSMOS 2500 (755),2014-032A,2024-07-07T23:54:53.101152,2.13105945,.0006926,65.6030,337.7334,187.2477,172.7348,0,U,40001,999,7834,0,-.8E-6,0
GPS BIIF-7  (PRN 09),2014-045A,2024-07-07T01:51:25.978464,2.00567763,.0026246,54.9387,116.8140,114.8315,245.4248,0,U,40105,999,7183,0,-.27E-6,0
GSAT0201 (PRN E18),2014-050A,2024-07-06T11:47:14.024256,1.85519543,.1612072,49.6397,302.2888,152.0120,217.7162,0,U,40128,999,6513,0,-.92E-6,0
GSAT0202 (PRN E14),2014-050B,2024-07-06T05:02:55.769280,1.85520190,.1610909,49.6571,301.3771,152.8009,216.6766,0,U,40129,999,6729,0,-.91E-6,0
IRNSS-1C,2014-061A,2024-07-07T18:44:47.122080,1.00273331,.0021872,4.7208,104.2408,7.2617,178.9306,0,U,40269,999,3571,0,-.168E-5,0
GPS BIIF-8  (PRN 03),2014-068A,2024-07-06T22:49:02.271936,2.00561139,.0054477,56.4374,58.4689,62.9459,297.6762,0,U,40294,999,7096,0,-.65E-6,0
